{
    "links": {
        "self": "http://www.neowsapp.com/rest/v1/neo/3263613?api_key=iIulBulltgU6a56xZRHN4H3l9WmuAYTsLGpBGhQ2"
    },
    "id": "3263613",
    "neo_reference_id": "3263613",
    "name": "(2004 XO35)",
    "designation": "2004 XO35",
    "nasa_jpl_url": "http://ssd.jpl.nasa.gov/sbdb.cgi?sstr=3263613",
    "absolute_magnitude_h": 21.8,
    "estimated_diameter": {
        "kilometers": {
            "estimated_diameter_min": 0.1160259082,
            "estimated_diameter_max": 0.2594418179
        },
        "meters": {
            "estimated_diameter_min": 116.0259082094,
            "estimated_diameter_max": 259.4418179074
        },
        "miles": {
            "estimated_diameter_min": 0.0720951346,
            "estimated_diameter_max": 0.1612096218
        },
        "feet": {
            "estimated_diameter_min": 380.6624406898,
            "estimated_diameter_max": 851.1870938635
        }
    },
    "is_potentially_hazardous_asteroid": false,
    "close_approach_data": [
        {
            "close_approach_date": "2004-11-20",
            "close_approach_date_full": "2004-Nov-20 19:34",
            "epoch_date_close_approach": 1100979240000,
            "relative_velocity": {
                "kilometers_per_second": "6.9740824563",
                "kilometers_per_hour": "25106.696842528",
                "miles_per_hour": "15600.325046403"
            },
            "miss_distance": {
                "astronomical": "0.1942607085",
                "lunar": "75.5674156065",
                "kilometers": "29060988.216290895",
                "miles": "18057660.732748551"
            },
            "orbiting_body": "Earth"
        },
        {
            "close_approach_date": "2007-03-08",
            "close_approach_date_full": "2007-Mar-08 20:01",
            "epoch_date_close_approach": 1173384060000,
            "relative_velocity": {
                "kilometers_per_second": "3.399227892",
                "kilometers_per_hour": "12237.2204113178",
                "miles_per_hour": "7603.732871688"
            },
            "miss_distance": {
                "astronomical": "1.8928986849",
                "lunar": "736.3375884261",
                "kilometers": "283173611.386841163",
                "miles": "175955922.9312195294"
            },
            "orbiting_body": "Juptr"
        }
    ],
    "orbital_data": {
        "orbit_id": "10",
        "orbit_determination_date": "2017-04-06 09:11:43",
        "first_observation_date": "2004-12-12",
        "last_observation_date": "2004-12-31",
        "data_arc_in_days": 19,
        "observations_used": 25,
        "orbit_uncertainty": "8",
        "minimum_orbit_intersection": ".192802",
        "jupiter_tisserand_invariant": "3.160",
        "epoch_osculation": "2453357.5",
        "eccentricity": ".5671302514307742",
        "semi_major_axis": "2.582303837782328",
        "inclination": "9.257183285103002",
        "ascending_node_longitude": "108.9899905051741",
        "orbital_period": "1515.686693571264",
        "perihelion_distance": "1.117801212990183",
        "perihelion_argument": "295.8475764129901",
        "aphelion_distance": "4.046806462574472",
        "perihelion_time": "2453318.359351467119",
        "mean_anomaly": "9.29653439038696",
        "mean_motion": ".2375161050940991",
        "equinox": "J2000",
        "orbit_class": {
            "orbit_class_type": "AMO",
            "orbit_class_description": "Near-Earth asteroid orbits similar to that of 1221 Amor",
            "orbit_class_range": "1.017 AU < q (perihelion) < 1.3 AU"
        }
    },
    "is_sentry_object": false
}